{
  "type": "FeatureCollection",
  "features": [
    {
      "type": "Feature",
      "properties": {
        "norad_id": 44334,
        "name": "EUTELSAT 7C",
        "group": "eutelsat",
        "lat": -0.014085260962775159,
        "lon": 158.82539581784144,
        "alt_km": 35788.69730189635,
        "timestamp": "2025-12-22T04:03:38.833356+00:00",
        "meta_object_name": "EUTELSAT 7C",
        "meta_object_id": "2019-034B",
        "meta_epoch": "2025-12-21T18:22:03.973728",
        "meta_mean_motion": 1.00268905,
        "meta_eccentricity": 0.0003147,
        "meta_inclination": 0.0731,
        "meta_ra_of_asc_node": 180.5746,
        "meta_arg_of_pericenter": 76.0172,
        "meta_mean_anomaly": 116.4878,
        "meta_ephemeris_type": 0,
        "meta_classification_type": "U",
        "meta_norad_cat_id": 44334,
        "meta_element_set_no": 999,
        "meta_rev_at_epoch": 505,
        "meta_bstar": 0,
        "meta_mean_motion_dot": 7e-07,
        "meta_mean_motion_ddot": 0,
        "tle_line1": "1 44334U 19034B   25355.76532377  .00000070  00000+0  00000+0 0  9990",
        "tle_line2": "2 44334   0.0731 180.5746 0003147  76.0172 116.4878  1.00268905  5056"
      },
      "geometry": {
        "type": "Point",
        "coordinates": [
          158.82539581784144,
          -0.014085260962775159
        ]
      }
    },
    {
      "type": "Feature",
      "properties": {
        "norad_id": 44624,
        "name": "EUTELSAT 5 WEST B",
        "group": "eutelsat",
        "lat": 0.02534940235516167,
        "lon": 146.8567865959266,
        "alt_km": 35793.24876621779,
        "timestamp": "2025-12-22T04:03:38.833368+00:00",
        "meta_object_name": "EUTELSAT 5 WEST B",
        "meta_object_id": "2019-067A",
        "meta_epoch": "2025-12-21T18:18:34.310304",
        "meta_mean_motion": 1.0027136,
        "meta_eccentricity": 0.0003012,
        "meta_inclination": 0.066,
        "meta_ra_of_asc_node": 337.4911,
        "meta_arg_of_pericenter": 292.925,
        "meta_mean_anomaly": 89.8087,
        "meta_ephemeris_type": 0,
        "meta_classification_type": "U",
        "meta_norad_cat_id": 44624,
        "meta_element_set_no": 999,
        "meta_rev_at_epoch": 2265,
        "meta_bstar": 0,
        "meta_mean_motion_dot": -2e-07,
        "meta_mean_motion_ddot": 0,
        "tle_line1": "1 44624U 19067A   25355.76289711 -.00000020  00000+0  00000+0 0  9995",
        "tle_line2": "2 44624   0.0660 337.4911 0003012 292.9250  89.8087  1.00271360 22652"
      },
      "geometry": {
        "type": "Point",
        "coordinates": [
          146.8567865959266,
          0.02534940235516167
        ]
      }
    },
    {
      "type": "Feature",
      "properties": {
        "norad_id": 45027,
        "name": "EUTELSAT KONNECT",
        "group": "eutelsat",
        "lat": 0.07027261260456076,
        "lon": 159.07302110479773,
        "alt_km": 35788.981755891145,
        "timestamp": "2025-12-22T04:03:38.833380+00:00",
        "meta_object_name": "EUTELSAT KONNECT",
        "meta_object_id": "2020-005B",
        "meta_epoch": "2025-12-21T18:22:03.973728",
        "meta_mean_motion": 1.00271135,
        "meta_eccentricity": 0.0001298,
        "meta_inclination": 0.0699,
        "meta_ra_of_asc_node": 94.7667,
        "meta_arg_of_pericenter": 184.4373,
        "meta_mean_anomaly": 94.097,
        "meta_ephemeris_type": 0,
        "meta_classification_type": "U",
        "meta_norad_cat_id": 45027,
        "meta_element_set_no": 999,
        "meta_rev_at_epoch": 2255,
        "meta_bstar": 0,
        "meta_mean_motion_dot": 7.2e-07,
        "meta_mean_motion_ddot": 0,
        "tle_line1": "1 45027U 20005B   25355.76532377  .00000072  00000+0  00000+0 0  9992",
        "tle_line2": "2 45027   0.0699  94.7667 0001298 184.4373  94.0970  1.00271135 22556"
      },
      "geometry": {
        "type": "Point",
        "coordinates": [
          159.07302110479773,
          0.07027261260456076
        ]
      }
    },
    {
      "type": "Feature",
      "properties": {
        "norad_id": 49056,
        "name": "EUTELSAT QUANTUM",
        "group": "eutelsat",
        "lat": 0.005506480865631403,
        "lon": -160.4464406394769,
        "alt_km": 35783.4371471385,
        "timestamp": "2025-12-22T04:03:38.833391+00:00",
        "meta_object_name": "EUTELSAT QUANTUM",
        "meta_object_id": "2021-069B",
        "meta_epoch": "2025-12-21T09:59:47.771232",
        "meta_mean_motion": 1.00272395,
        "meta_eccentricity": 0.00033477,
        "meta_inclination": 0.0212,
        "meta_ra_of_asc_node": 40.4204,
        "meta_arg_of_pericenter": 239.54,
        "meta_mean_anomaly": 7.9319,
        "meta_ephemeris_type": 0,
        "meta_classification_type": "U",
        "meta_norad_cat_id": 49056,
        "meta_element_set_no": 999,
        "meta_rev_at_epoch": 1614,
        "meta_bstar": 0,
        "meta_mean_motion_dot": 1.48e-06,
        "meta_mean_motion_ddot": 0,
        "tle_line1": "1 49056U 21069B   25355.41652513  .00000148  00000+0  00000+0 0  9990",
        "tle_line2": "2 49056   0.0212  40.4204 0003347 239.5400   7.9319  1.00272395 16145"
      },
      "geometry": {
        "type": "Point",
        "coordinates": [
          -160.4464406394769,
          0.005506480865631403
        ]
      }
    },
    {
      "type": "Feature",
      "properties": {
        "norad_id": 53765,
        "name": "EUTELSAT KONNECT VHTS",
        "group": "eutelsat",
        "lat": 0.05981523808439997,
        "lon": 154.59171149861703,
        "alt_km": 35784.147651013576,
        "timestamp": "2025-12-22T04:03:38.833403+00:00",
        "meta_object_name": "EUTELSAT KONNECT VHTS",
        "meta_object_id": "2022-110A",
        "meta_epoch": "2025-12-21T13:12:40.176000",
        "meta_mean_motion": 1.00270894,
        "meta_eccentricity": 0.0002618,
        "meta_inclination": 0.0618,
        "meta_ra_of_asc_node": 99.3714,
        "meta_arg_of_pericenter": 133.7511,
        "meta_mean_anomaly": 58.1537,
        "meta_ephemeris_type": 0,
        "meta_classification_type": "U",
        "meta_norad_cat_id": 53765,
        "meta_element_set_no": 999,
        "meta_rev_at_epoch": 504,
        "meta_bstar": 0,
        "meta_mean_motion_dot": 4e-07,
        "meta_mean_motion_ddot": 0,
        "tle_line1": "1 53765U 22110A   25355.55046500  .00000040  00000+0  00000+0 0  9999",
        "tle_line2": "2 53765   0.0618  99.3714 0002618 133.7511  58.1537  1.00270894  5043"
      },
      "geometry": {
        "type": "Point",
        "coordinates": [
          154.59171149861703,
          0.05981523808439997
        ]
      }
    },
    {
      "type": "Feature",
      "properties": {
        "norad_id": 54048,
        "name": "EUTELSAT HOTBIRD 13F",
        "group": "eutelsat",
        "lat": -0.032367494239603486,
        "lon": 164.88837589839758,
        "alt_km": 35795.08243699524,
        "timestamp": "2025-12-22T04:03:38.833415+00:00",
        "meta_object_name": "EUTELSAT HOTBIRD 13F",
        "meta_object_id": "2022-134A",
        "meta_epoch": "2025-12-21T18:23:41.318880",
        "meta_mean_motion": 1.00271806,
        "meta_eccentricity": 0.0002285,
        "meta_inclination": 0.0526,
        "meta_ra_of_asc_node": 292.212,
        "meta_arg_of_pericenter": 72.0612,
        "meta_mean_anomaly": 15.2275,
        "meta_ephemeris_type": 0,
        "meta_classification_type": "U",
        "meta_norad_cat_id": 54048,
        "meta_element_set_no": 999,
        "meta_rev_at_epoch": 1159,
        "meta_bstar": 0,
        "meta_mean_motion_dot": 1.09e-06,
        "meta_mean_motion_ddot": 0,
        "tle_line1": "1 54048U 22134A   25355.76645045  .00000109  00000+0  00000+0 0  9998",
        "tle_line2": "2 54048   0.0526 292.2120 0002285  72.0612  15.2275  1.00271806 11592"
      },
      "geometry": {
        "type": "Point",
        "coordinates": [
          164.88837589839758,
          -0.032367494239603486
        ]
      }
    },
    {
      "type": "Feature",
      "properties": {
        "norad_id": 54225,
        "name": "EUTELSAT HOTBIRD 13G",
        "group": "eutelsat",
        "lat": -0.029282063893526156,
        "lon": 164.87358096088,
        "alt_km": 35778.33335708566,
        "timestamp": "2025-12-22T04:03:38.833426+00:00",
        "meta_object_name": "EUTELSAT HOTBIRD 13G",
        "meta_object_id": "2022-146A",
        "meta_epoch": "2025-12-21T16:40:57.730368",
        "meta_mean_motion": 1.00271803,
        "meta_eccentricity": 0.0001861,
        "meta_inclination": 0.0528,
        "meta_ra_of_asc_node": 225.6039,
        "meta_arg_of_pericenter": 308.6621,
        "meta_mean_anomaly": 179.4799,
        "meta_ephemeris_type": 0,
        "meta_classification_type": "U",
        "meta_norad_cat_id": 54225,
        "meta_element_set_no": 999,
        "meta_rev_at_epoch": 568,
        "meta_bstar": 0,
        "meta_mean_motion_dot": 1.1e-06,
        "meta_mean_motion_ddot": 0,
        "tle_line1": "1 54225U 22146A   25355.69511262  .00000110  00000+0  00000+0 0  9995",
        "tle_line2": "2 54225   0.0528 225.6039 0001861 308.6621 179.4799  1.00271803  5681"
      },
      "geometry": {
        "type": "Point",
        "coordinates": [
          164.87358096088,
          -0.029282063893526156
        ]
      }
    }
  ]
}